start=new Date('2023-06-18T00:00:00.000Z').valueOf();
sats=[{"GP_ID":"234174699","COUNTRY_CODE":"US","LAUNCH_DATE":"2023-03-17","MEAN_MOTION_DDOT":"0.0000000000000","EPHEMERIS_TYPE":"0","TLE_LINE1":"1 55949U 23037AM  23168.66519163  .00001952  00000-0  17998-4 0  9999","OBJECT_NAME":"STARLINK-5899","TIME_SYSTEM":"UTC","PERIAPSIS":"356.697","REF_FRAME":"TEME","OBJECT_ID":"2023-037AM","RA_OF_ASC_NODE":"282.6856","SEMIMAJOR_AXIS":"6737.237","ELEMENT_SET_NO":"999","RCS_SIZE":"LARGE","DECAY_DATE":null,"CLASSIFICATION_TYPE":"U","MEAN_ANOMALY":"87.2251","REV_AT_EPOCH":"1461","INCLINATION":"69.9988","FILE":"3935891","EPOCH":"2023-06-17T15:57:52.556832","CENTER_NAME":"EARTH","APOAPSIS":"361.507","ECCENTRICITY":"0.00035700","MEAN_ELEMENT_THEORY":"SGP4","SITE":"AFWTR","MEAN_MOTION":"15.69929022","NORAD_CAT_ID":"55949","BSTAR":"0.00001799800000","OBJECT_TYPE":"PAYLOAD","TLE_LINE2":"2 55949  69.9988 282.6856 0003570 272.8536  87.2251 15.69929022 14610","MEAN_MOTION_DOT":"0.00001952","ARG_OF_PERICENTER":"272.8536","PERIOD":"91.724"},{"SEMIMAJOR_AXIS":"6737.204","RA_OF_ASC_NODE":"282.5062","OBJECT_ID":"2023-037AN","ELEMENT_SET_NO":"999","DECAY_DATE":null,"RCS_SIZE":"LARGE","PERIAPSIS":"356.562","REF_FRAME":"TEME","TLE_LINE1":"1 55950U 23037AN  23168.72848179 -.00001166  00000-0 -79195-5 0  9997","OBJECT_NAME":"STARLINK-5911","TIME_SYSTEM":"UTC","GP_ID":"234175449","COUNTRY_CODE":"US","LAUNCH_DATE":"2023-03-17","EPHEMERIS_TYPE":"0","MEAN_MOTION_DDOT":"0.0000000000000","PERIOD":"91.723","BSTAR":"-0.00000791950000","NORAD_CAT_ID":"55950","OBJECT_TYPE":"PAYLOAD","MEAN_MOTION_DOT":"-0.00001166","TLE_LINE2":"2 55950  69.9982 282.5062 0003721 274.9885  85.0886 15.69940731 14623","ARG_OF_PERICENTER":"274.9885","ECCENTRICITY":"0.00037210","MEAN_ELEMENT_THEORY":"SGP4","MEAN_MOTION":"15.69940731","SITE":"AFWTR","CLASSIFICATION_TYPE":"U","MEAN_ANOMALY":"85.0886","REV_AT_EPOCH":"1462","CENTER_NAME":"EARTH","EPOCH":"2023-06-17T17:29:00.826656","FILE":"3935891","INCLINATION":"69.9982","APOAPSIS":"361.575"},{"GP_ID":"234174197","COUNTRY_CODE":"US","LAUNCH_DATE":"2023-03-17","MEAN_MOTION_DDOT":"0.0000000000000","EPHEMERIS_TYPE":"0","TLE_LINE1":"1 55951U 23037AP  23168.66540416  .00001299  00000-0  12566-4 0  9997","OBJECT_NAME":"STARLINK-5908","TIME_SYSTEM":"UTC","PERIAPSIS":"356.768","REF_FRAME":"TEME","OBJECT_ID":"2023-037AP","RA_OF_ASC_NODE":"282.6864","SEMIMAJOR_AXIS":"6737.241","ELEMENT_SET_NO":"999","RCS_SIZE":"LARGE","DECAY_DATE":null,"CLASSIFICATION_TYPE":"U","MEAN_ANOMALY":"89.8500","REV_AT_EPOCH":"1461","INCLINATION":"69.9987","FILE":"3935891","EPOCH":"2023-06-17T15:58:10.919424","CENTER_NAME":"EARTH","APOAPSIS":"361.444","ECCENTRICITY":"0.00034700","MEAN_ELEMENT_THEORY":"SGP4","MEAN_MOTION":"15.69927620","SITE":"AFWTR","NORAD_CAT_ID":"55951","BSTAR":"0.00001256600000","OBJECT_TYPE":"PAYLOAD","TLE_LINE2":"2 55951  69.9987 282.6864 0003470 270.2298  89.8500 15.69927620 14614","MEAN_MOTION_DOT":"0.00001299","ARG_OF_PERICENTER":"270.2298","PERIOD":"91.724"},{"ECCENTRICITY":"0.00034490","MEAN_ELEMENT_THEORY":"SGP4","MEAN_MOTION":"15.69929238","SITE":"AFWTR","CLASSIFICATION_TYPE":"U","MEAN_ANOMALY":"87.1483","REV_AT_EPOCH":"1462","EPOCH":"2023-06-17T17:29:28.713984","CENTER_NAME":"EARTH","INCLINATION":"70.0004","FILE":"3935891","APOAPSIS":"361.425","PERIOD":"91.724","BSTAR":"0.00002427100000","NORAD_CAT_ID":"55952","OBJECT_TYPE":"PAYLOAD","MEAN_MOTION_DOT":"0.00002707","TLE_LINE2":"2 55952  70.0004 282.5058 0003449 272.9318  87.1483 15.69929238 14629","ARG_OF_PERICENTER":"272.9318","TLE_LINE1":"1 55952U 23037AQ  23168.72880456  .00002707  00000-0  24271-4 0  9997","OBJECT_NAME":"STARLINK-5893","TIME_SYSTEM":"UTC","GP_ID":"234174447","COUNTRY_CODE":"US","LAUNCH_DATE":"2023-03-17","EPHEMERIS_TYPE":"0","MEAN_MOTION_DDOT":"0.0000000000000","SEMIMAJOR_AXIS":"6737.236","RA_OF_ASC_NODE":"282.5058","OBJECT_ID":"2023-037AQ","ELEMENT_SET_NO":"999","DECAY_DATE":null,"RCS_SIZE":"LARGE","PERIAPSIS":"356.778","REF_FRAME":"TEME"},{"PERIOD":"91.724","MEAN_MOTION_DOT":"0.00001283","TLE_LINE2":"2 55953  70.0014 282.6872 0003080 271.0464  89.0379 15.69924235 14615","ARG_OF_PERICENTER":"271.0464","NORAD_CAT_ID":"55953","BSTAR":"0.00001243800000","OBJECT_TYPE":"PAYLOAD","MEAN_ELEMENT_THEORY":"SGP4","SITE":"AFWTR","MEAN_MOTION":"15.69924235","ECCENTRICITY":"0.00030800","INCLINATION":"70.0014","FILE":"3935891","EPOCH":"2023-06-17T15:58:01.968384","CENTER_NAME":"EARTH","APOAPSIS":"361.191","CLASSIFICATION_TYPE":"U","MEAN_ANOMALY":"89.0379","REV_AT_EPOCH":"1461","ELEMENT_SET_NO":"999","RCS_SIZE":"LARGE","DECAY_DATE":null,"RA_OF_ASC_NODE":"282.6872","OBJECT_ID":"2023-037AR","SEMIMAJOR_AXIS":"6737.251","REF_FRAME":"TEME","PERIAPSIS":"357.041","OBJECT_NAME":"STARLINK-5889","TIME_SYSTEM":"UTC","TLE_LINE1":"1 55953U 23037AR  23168.66530056  .00001283  00000-0  12438-4 0  9999","LAUNCH_DATE":"2023-03-17","MEAN_MOTION_DDOT":"0.0000000000000","EPHEMERIS_TYPE":"0","GP_ID":"234175199","COUNTRY_CODE":"US"},{"SEMIMAJOR_AXIS":"6737.257","OBJECT_ID":"2023-037AS","RA_OF_ASC_NODE":"282.8613","DECAY_DATE":null,"RCS_SIZE":"LARGE","ELEMENT_SET_NO":"999","PERIAPSIS":"356.719","REF_FRAME":"TEME","TLE_LINE1":"1 55954U 23037AS  23168.60031853  .00000315  00000-0  43895-5 0  9992","TIME_SYSTEM":"UTC","OBJECT_NAME":"STARLINK-5892","COUNTRY_CODE":"US","GP_ID":"234174950","EPHEMERIS_TYPE":"0","MEAN_MOTION_DDOT":"0.0000000000000","LAUNCH_DATE":"2023-03-17","PERIOD":"91.724","OBJECT_TYPE":"PAYLOAD","BSTAR":"0.00000438950000","NORAD_CAT_ID":"55954","ARG_OF_PERICENTER":"269.3155","MEAN_MOTION_DOT":"0.00000315","TLE_LINE2":"2 55954  70.0003 282.8613 0003567 269.3155  90.7632 15.69922038 14605","ECCENTRICITY":"0.00035670","SITE":"AFWTR","MEAN_MOTION":"15.69922038","MEAN_ELEMENT_THEORY":"SGP4","REV_AT_EPOCH":"1460","CLASSIFICATION_TYPE":"U","MEAN_ANOMALY":"90.7632","APOAPSIS":"361.525","EPOCH":"2023-06-17T14:24:27.520992","CENTER_NAME":"EARTH","INCLINATION":"70.0003","FILE":"3935891"},{"BSTAR":"0.00001722100000","NORAD_CAT_ID":"55955","OBJECT_TYPE":"PAYLOAD","MEAN_MOTION_DOT":"0.00001859","TLE_LINE2":"2 55955  69.9989 282.5050 0003446 267.5001  92.5800 15.69929117 14628","ARG_OF_PERICENTER":"267.5001","PERIOD":"91.724","MEAN_ANOMALY":"92.5800","CLASSIFICATION_TYPE":"U","REV_AT_EPOCH":"1462","CENTER_NAME":"EARTH","EPOCH":"2023-06-17T17:28:42.934080","FILE":"3935891","INCLINATION":"69.9989","APOAPSIS":"361.423","ECCENTRICITY":"0.00034460","MEAN_ELEMENT_THEORY":"SGP4","MEAN_MOTION":"15.69929117","SITE":"AFWTR","PERIAPSIS":"356.780","REF_FRAME":"TEME","SEMIMAJOR_AXIS":"6737.237","OBJECT_ID":"2023-037AT","RA_OF_ASC_NODE":"282.5050","ELEMENT_SET_NO":"999","DECAY_DATE":null,"RCS_SIZE":"LARGE","GP_ID":"234173698","COUNTRY_CODE":"US","LAUNCH_DATE":"2023-03-17","EPHEMERIS_TYPE":"0","MEAN_MOTION_DDOT":"0.0000000000000","TLE_LINE1":"1 55955U 23037AT  23168.72827470  .00001859  00000-0  17221-4 0  9991","OBJECT_NAME":"STARLINK-5878","TIME_SYSTEM":"UTC"},{"ELEMENT_SET_NO":"999","RCS_SIZE":"LARGE","DECAY_DATE":null,"RA_OF_ASC_NODE":"282.5010","OBJECT_ID":"2023-037AU","SEMIMAJOR_AXIS":"6737.240","REF_FRAME":"TEME","PERIAPSIS":"356.759","OBJECT_NAME":"STARLINK-5883","TIME_SYSTEM":"UTC","TLE_LINE1":"1 55956U 23037AU  23168.72753921  .00000558  00000-0  64121-5 0  9998","LAUNCH_DATE":"2023-03-17","MEAN_MOTION_DDOT":"0.0000000000000","EPHEMERIS_TYPE":"0","GP_ID":"234173948","COUNTRY_CODE":"US","PERIOD":"91.724","TLE_LINE2":"2 55956  69.9985 282.5010 0003482 274.5354  85.5444 15.69927858 14626","MEAN_MOTION_DOT":"0.00000558","ARG_OF_PERICENTER":"274.5354","NORAD_CAT_ID":"55956","BSTAR":"0.00000641210000","OBJECT_TYPE":"PAYLOAD","MEAN_ELEMENT_THEORY":"SGP4","MEAN_MOTION":"15.69927858","SITE":"AFWTR","ECCENTRICITY":"0.00034820","INCLINATION":"69.9985","FILE":"3935891","EPOCH":"2023-06-17T17:27:39.387744","CENTER_NAME":"EARTH","APOAPSIS":"361.451","CLASSIFICATION_TYPE":"U","MEAN_ANOMALY":"85.5444","REV_AT_EPOCH":"1462"},{"PERIAPSIS":"356.694","REF_FRAME":"TEME","SEMIMAJOR_AXIS":"6737.238","RA_OF_ASC_NODE":"282.5044","OBJECT_ID":"2023-037AV","DECAY_DATE":null,"RCS_SIZE":"LARGE","ELEMENT_SET_NO":"999","COUNTRY_CODE":"US","GP_ID":"234174700","EPHEMERIS_TYPE":"0","MEAN_MOTION_DDOT":"0.0000000000000","LAUNCH_DATE":"2023-03-17","TLE_LINE1":"1 55957U 23037AV  23168.72838071  .00001594  00000-0  15017-4 0  9999","TIME_SYSTEM":"UTC","OBJECT_NAME":"STARLINK-5884","OBJECT_TYPE":"PAYLOAD","BSTAR":"0.00001501700000","NORAD_CAT_ID":"55957","ARG_OF_PERICENTER":"272.4612","MEAN_MOTION_DOT":"0.00001594","TLE_LINE2":"2 55957  70.0003 282.5044 0003575 272.4612  87.6174 15.69928765 14626","PERIOD":"91.724","REV_AT_EPOCH":"1462","CLASSIFICATION_TYPE":"U","MEAN_ANOMALY":"87.6174","APOAPSIS":"361.511","CENTER_NAME":"EARTH","EPOCH":"2023-06-17T17:28:52.093344","INCLINATION":"70.0003","FILE":"3935891","ECCENTRICITY":"0.00035750","SITE":"AFWTR","MEAN_MOTION":"15.69928765","MEAN_ELEMENT_THEORY":"SGP4"},{"PERIAPSIS":"356.740","REF_FRAME":"TEME","RA_OF_ASC_NODE":"282.6831","OBJECT_ID":"2023-037AW","SEMIMAJOR_AXIS":"6737.239","RCS_SIZE":"LARGE","DECAY_DATE":null,"ELEMENT_SET_NO":"999","COUNTRY_CODE":"US","GP_ID":"234175450","MEAN_MOTION_DDOT":"0.0000000000000","EPHEMERIS_TYPE":"0","LAUNCH_DATE":"2023-03-17","TLE_LINE1":"1 55958U 23037AW  23168.66445335  .00001335  00000-0  12869-4 0  9995","TIME_SYSTEM":"UTC","OBJECT_NAME":"STARLINK-5928","OBJECT_TYPE":"PAYLOAD","NORAD_CAT_ID":"55958","BSTAR":"0.00001286900000","ARG_OF_PERICENTER":"272.2616","MEAN_MOTION_DOT":"0.00001335","TLE_LINE2":"2 55958  69.9985 282.6831 0003510 272.2616  87.8178 15.69928243 14615","PERIOD":"91.724","REV_AT_EPOCH":"1461","MEAN_ANOMALY":"87.8178","CLASSIFICATION_TYPE":"U","APOAPSIS":"361.469","INCLINATION":"69.9985","FILE":"3935891","EPOCH":"2023-06-17T15:56:48.769440","CENTER_NAME":"EARTH","ECCENTRICITY":"0.00035100","MEAN_MOTION":"15.69928243","SITE":"AFWTR","MEAN_ELEMENT_THEORY":"SGP4"}];
